{
  "type": "FeatureCollection",
  "features": [
    {
      "type": "Feature",
      "properties": {
        "norad_id": 33412,
        "name": "COSMO-SKYMED 3",
        "group": "resource",
        "lat": -58.35783029278767,
        "lon": 19.315143399850687,
        "alt_km": 562.1691620296051,
        "timestamp": "2025-12-27T14:26:30.173223+00:00",
        "meta_object_name": "COSMO-SKYMED 3",
        "meta_object_id": "2008-054A",
        "meta_epoch": "2025-12-27T07:00:11.683296",
        "meta_mean_motion": 15.05476839,
        "meta_eccentricity": 0.00171041,
        "meta_inclination": 97.845,
        "meta_ra_of_asc_node": 211.9294,
        "meta_arg_of_pericenter": 125.1715,
        "meta_mean_anomaly": 235.1116,
        "meta_ephemeris_type": 0,
        "meta_classification_type": "U",
        "meta_norad_cat_id": 33412,
        "meta_element_set_no": 999,
        "meta_rev_at_epoch": 93106,
        "meta_bstar": 0.00020931319,
        "meta_mean_motion_dot": 2.952e-05,
        "meta_mean_motion_ddot": 0,
        "tle_line1": "1 33412U 08054A   25361.29180189  .00002952  00000+0  20931-3 0  9990",
        "tle_line2": "2 33412  97.8450 211.9294 0017104 125.1715 235.1116 15.05476839931067"
      },
      "geometry": {
        "type": "Point",
        "coordinates": [
          19.315143399850687,
          -58.35783029278767
        ]
      }
    },
    {
      "type": "Feature",
      "properties": {
        "norad_id": 33446,
        "name": "YAOGAN-4",
        "group": "resource",
        "lat": 81.4258451001658,
        "lon": -135.85620565296182,
        "alt_km": 622.34273977678,
        "timestamp": "2025-12-27T14:26:30.173233+00:00",
        "meta_object_name": "YAOGAN-4",
        "meta_object_id": "2008-061A",
        "meta_epoch": "2025-12-27T05:57:11.988288",
        "meta_mean_motion": 14.82725658,
        "meta_eccentricity": 0.00129687,
        "meta_inclination": 97.9199,
        "meta_ra_of_asc_node": 291.2063,
        "meta_arg_of_pericenter": 271.6936,
        "meta_mean_anomaly": 88.2792,
        "meta_ephemeris_type": 0,
        "meta_classification_type": "U",
        "meta_norad_cat_id": 33446,
        "meta_element_set_no": 999,
        "meta_rev_at_epoch": 92018,
        "meta_bstar": 0.0002107495,
        "meta_mean_motion_dot": 1.65e-05,
        "meta_mean_motion_ddot": 0,
        "tle_line1": "1 33446U 08061A   25361.24805542  .00001650  00000+0  21075-3 0  9991",
        "tle_line2": "2 33446  97.9199 291.2063 0012968 271.6936  88.2792 14.82725658920183"
      },
      "geometry": {
        "type": "Point",
        "coordinates": [
          -135.85620565296182,
          81.4258451001658
        ]
      }
    },
    {
      "type": "Feature",
      "properties": {
        "norad_id": 33492,
        "name": "GOSAT (IBUKI)",
        "group": "resource",
        "lat": 48.277912323795356,
        "lon": 100.83456888433514,
        "alt_km": 664.1488621537537,
        "timestamp": "2025-12-27T14:26:30.173244+00:00",
        "meta_object_name": "GOSAT (IBUKI)",
        "meta_object_id": "2009-002A",
        "meta_epoch": "2025-12-27T04:24:05.093856",
        "meta_mean_motion": 14.67553436,
        "meta_eccentricity": 0.00010508,
        "meta_inclination": 98.0771,
        "meta_ra_of_asc_node": 109.5862,
        "meta_arg_of_pericenter": 106.222,
        "meta_mean_anomaly": 253.9101,
        "meta_ephemeris_type": 0,
        "meta_classification_type": "U",
        "meta_norad_cat_id": 33492,
        "meta_element_set_no": 999,
        "meta_rev_at_epoch": 90623,
        "meta_bstar": 0.00019160166,
        "meta_mean_motion_dot": 1.039e-05,
        "meta_mean_motion_ddot": 0,
        "tle_line1": "1 33492U 09002A   25361.18339229  .00001039  00000+0  19160-3 0  9998",
        "tle_line2": "2 33492  98.0771 109.5862 0001050 106.2220 253.9101 14.67553436906230"
      },
      "geometry": {
        "type": "Point",
        "coordinates": [
          100.83456888433514,
          48.277912323795356
        ]
      }
    },
    {
      "type": "Feature",
      "properties": {
        "norad_id": 35681,
        "name": "DEIMOS-1",
        "group": "resource",
        "lat": 16.953569171442016,
        "lon": -16.11728996796906,
        "alt_km": 646.2675438976694,
        "timestamp": "2025-12-27T14:26:30.173255+00:00",
        "meta_object_name": "DEIMOS-1",
        "meta_object_id": "2009-041A",
        "meta_epoch": "2025-12-27T07:11:37.592160",
        "meta_mean_motion": 14.74975988,
        "meta_eccentricity": 0.00023938,
        "meta_inclination": 97.7159,
        "meta_ra_of_asc_node": 161.2261,
        "meta_arg_of_pericenter": 57.5087,
        "meta_mean_anomaly": 302.6354,
        "meta_ephemeris_type": 0,
        "meta_classification_type": "U",
        "meta_norad_cat_id": 35681,
        "meta_element_set_no": 999,
        "meta_rev_at_epoch": 88154,
        "meta_bstar": 0.00017626894,
        "meta_mean_motion_dot": 1.138e-05,
        "meta_mean_motion_ddot": 0,
        "tle_line1": "1 35681U 09041A   25361.29974065  .00001138  00000+0  17627-3 0  9994",
        "tle_line2": "2 35681  97.7159 161.2261 0002393  57.5087 302.6354 14.74975988881542"
      },
      "geometry": {
        "type": "Point",
        "coordinates": [
          -16.11728996796906,
          16.953569171442016
        ]
      }
    },
    {
      "type": "Feature",
      "properties": {
        "norad_id": 35682,
        "name": "DUBAISAT-1",
        "group": "resource",
        "lat": 77.0581387163474,
        "lon": 94.4423003391275,
        "alt_km": 645.5392929313721,
        "timestamp": "2025-12-27T14:26:30.173268+00:00",
        "meta_object_name": "DUBAISAT-1",
        "meta_object_id": "2009-041B",
        "meta_epoch": "2025-12-27T07:34:00.579936",
        "meta_mean_motion": 14.7464495,
        "meta_eccentricity": 0.00092775,
        "meta_inclination": 97.98,
        "meta_ra_of_asc_node": 131.7814,
        "meta_arg_of_pericenter": 261.9531,
        "meta_mean_anomaly": 98.0625,
        "meta_ephemeris_type": 0,
        "meta_classification_type": "U",
        "meta_norad_cat_id": 35682,
        "meta_element_set_no": 999,
        "meta_rev_at_epoch": 87976,
        "meta_bstar": 0.00024412412,
        "meta_mean_motion_dot": 1.579e-05,
        "meta_mean_motion_ddot": 0,
        "tle_line1": "1 35682U 09041B   25361.31528449  .00001579  00000+0  24412-3 0  9998",
        "tle_line2": "2 35682  97.9800 131.7814 0009277 261.9531  98.0625 14.74644950879767"
      },
      "geometry": {
        "type": "Point",
        "coordinates": [
          94.4423003391275,
          77.0581387163474
        ]
      }
    },
    {
      "type": "Feature",
      "properties": {
        "norad_id": 35931,
        "name": "OCEANSAT-2",
        "group": "resource",
        "lat": -29.975287265927463,
        "lon": 175.91063416292204,
        "alt_km": 911.4885003164127,
        "timestamp": "2025-12-27T14:26:30.173279+00:00",
        "meta_object_name": "OCEANSAT-2",
        "meta_object_id": "2009-051A",
        "meta_epoch": "2025-12-27T06:34:38.391744",
        "meta_mean_motion": 13.99623191,
        "meta_eccentricity": 0.00158515,
        "meta_inclination": 98.2218,
        "meta_ra_of_asc_node": 0.3997,
        "meta_arg_of_pericenter": 6.7944,
        "meta_mean_anomaly": 353.3435,
        "meta_ephemeris_type": 0,
        "meta_classification_type": "U",
        "meta_norad_cat_id": 35931,
        "meta_element_set_no": 999,
        "meta_rev_at_epoch": 85528,
        "meta_bstar": 6.2379526e-05,
        "meta_mean_motion_dot": 5.4e-07,
        "meta_mean_motion_ddot": 0,
        "tle_line1": "1 35931U 09051A   25361.27405546  .00000054  00000+0  62380-4 0  9997",
        "tle_line2": "2 35931  98.2218   0.3997 0015851   6.7944 353.3435 13.99623191855289"
      },
      "geometry": {
        "type": "Point",
        "coordinates": [
          175.91063416292204,
          -29.975287265927463
        ]
      }
    },
    {
      "type": "Feature",
      "properties": {
        "norad_id": 35946,
        "name": "WORLDVIEW-2 (WV-2)",
        "group": "resource",
        "lat": -27.62012991407878,
        "lon": -111.9936714101649,
        "alt_km": 775.0324363671298,
        "timestamp": "2025-12-27T14:26:30.173290+00:00",
        "meta_object_name": "WORLDVIEW-2 (WV-2)",
        "meta_object_id": "2009-055A",
        "meta_epoch": "2025-12-27T06:47:49.479648",
        "meta_mean_motion": 14.37730577,
        "meta_eccentricity": 0.00046031,
        "meta_inclination": 98.477,
        "meta_ra_of_asc_node": 72.1678,
        "meta_arg_of_pericenter": 34.5447,
        "meta_mean_anomaly": 325.6038,
        "meta_ephemeris_type": 0,
        "meta_classification_type": "U",
        "meta_norad_cat_id": 35946,
        "meta_element_set_no": 999,
        "meta_rev_at_epoch": 85094,
        "meta_bstar": 7.9943829e-05,
        "meta_mean_motion_dot": 1.97e-06,
        "meta_mean_motion_ddot": 0,
        "tle_line1": "1 35946U 09055A   25361.28321157  .00000197  00000+0  79944-4 0  9995",
        "tle_line2": "2 35946  98.4770  72.1678 0004603  34.5447 325.6038 14.37730577850942"
      },
      "geometry": {
        "type": "Point",
        "coordinates": [
          -111.9936714101649,
          -27.62012991407878
        ]
      }
    }
  ]
}